NORAD_CAT_ID,OBJECT_NAME,OBJECT_TYPE,EPOCH,MEAN_MOTION,ECCENTRICITY,INCLINATION,RA_OF_ASC_NODE,ARG_OF_PERICENTER,MEAN_ANOMALY,BSTAR,MEAN_MOTION_DOT,MEAN_MOTION_DDOT,TLE_LINE0,TLE_LINE1,TLE_LINE2,SEMIMAJOR_AXIS,PERIOD,APOGEE,PERIGEE,DECAYED
55429.0,STARLINK-5645,PAYLOAD,2023-06-23 09:36:33,14.98372014,0.0002653,70.002,61.4386,276.6502,83.4355,-0.0008376,-0.00010083,0.0,0 STARLINK-5645,1 55429U 23014AQ  23174.40038594 -.00010083  00000-0 -83760-3 0  9996,2 55429  70.0020  61.4386 0002653 276.6502  83.4355 14.98372014 22289,6950.063,96.104,573.772,570.084,0.0
55429.0,STARLINK-5645,PAYLOAD,2023-06-23 17:37:14,14.98313983,0.0002923,70.0005,60.5972,263.7475,96.3351,0.00020421,2.343e-05,0.0,0 STARLINK-5645,1 55429U 23014AQ  23174.73419607  .00002343  00000-0  20421-3 0  9993,2 55429  70.0005  60.5972 0002923 263.7475  96.3351 14.98313983 22334,6950.242,96.108,574.139,570.076,0.0
55429.0,STARLINK-5645,PAYLOAD,2023-06-24 16:03:07,14.98329408,0.0002797,70.0007,58.241,264.4996,95.5844,1.0815e-05,3.6e-07,0.0,0 STARLINK-5645,1 55429U 23014AQ  23175.66883391  .00000036  00000-0  10815-4 0  9995,2 55429  70.0007  58.2410 0002797 264.4996  95.5844 14.98329408 22474,6950.195,96.107,574.004,570.116,0.0
55429.0,STARLINK-5645,PAYLOAD,2023-06-25 16:05:08,14.98326736,0.0002981,70.0003,55.7165,269.0072,91.0746,9.6424e-06,2.2e-07,0.0,0 STARLINK-5645,1 55429U 23014AQ  23176.67023565  .00000022  00000-0  96424-5 0  9992,2 55429  70.0003  55.7165 0002981 269.0072  91.0746 14.98326736 22620,6950.203,96.107,574.14,569.996,0.0
55429.0,STARLINK-5645,PAYLOAD,2023-06-26 16:07:09,14.98327099,0.0003056,70.0002,53.1913,267.3521,92.7288,-1.8246e-05,-3.11e-06,0.0,0 STARLINK-5645,1 55429U 23014AQ  23177.67163608 -.00000311  00000-0 -18246-4 0  9994,2 55429  70.0002  53.1913 0003056 267.3521  92.7288 14.98327099 22774,6950.202,96.107,574.191,569.943,0.0
55429.0,STARLINK-5645,PAYLOAD,2023-06-27 20:57:34,14.98338156,0.0002822,70.0004,50.1619,268.7008,91.3828,-8.9395e-05,-1.16e-05,0.0,0 STARLINK-5645,1 55429U 23014AQ  23178.87331137 -.00001160  00000-0 -89395-4 0  9997,2 55429  70.0004  50.1619 0002822 268.7008  91.3828 14.98338156 22952,6950.168,96.106,573.994,570.071,0.0
55429.0,STARLINK-5645,PAYLOAD,2023-06-28 17:47:19,14.98327121,0.000285,70.0006,47.9738,263.7874,96.2961,1.7108e-05,1.11e-06,0.0,0 STARLINK-5645,1 55429U 23014AQ  23179.74119438  .00000111  00000-0  17108-4 0  9998,2 55429  70.0006  47.9738 0002850 263.7874  96.2961 14.98327121 23084,6950.202,96.107,574.048,570.086,0.0
55429.0,STARLINK-5645,PAYLOAD,2023-06-29 19:25:28,14.98332962,0.0002837,70.0006,45.2805,260.1188,99.9651,-4.0111e-05,-5.72e-06,0.0,0 STARLINK-5645,1 55429U 23014AQ  23180.80935186 -.00000572  00000-0 -40111-4 0  9996,2 55429  70.0006  45.2805 0002837 260.1188  99.9651 14.98332962 23247,6950.184,96.107,574.02,570.077,0.0
55429.0,STARLINK-5645,PAYLOAD,2023-06-30 16:15:13,14.98328567,0.000302,70.0001,43.0908,270.1413,89.94,-2.5707e-05,-4e-06,0.0,0 STARLINK-5645,1 55429U 23014AQ  23181.67723395 -.00000400  00000-0 -25707-4 0  9993,2 55429  70.0001  43.0908 0003020 270.1413  89.9400 14.98328567 23370,6950.197,96.107,574.161,569.963,0.0
55429.0,STARLINK-5645,PAYLOAD,2023-07-01 17:53:21,14.98331394,0.0003125,70.0,40.3981,269.9626,90.1175,-5.1558e-07,-9.9e-07,0.0,0 STARLINK-5645,1 55429U 23014AQ  23182.74539152 -.00000099  00000-0 -51558-6 0  9997,2 55429  70.0000  40.3981 0003125 269.9626  90.1175 14.98331394 23531,6950.189,96.107,574.226,569.882,0.0
55429.0,STARLINK-5645,PAYLOAD,2023-07-03 00:19:54,14.98333675,0.0003133,70.0001,37.1995,269.0964,90.9836,6.1911e-05,6.46e-06,0.0,0 STARLINK-5645,1 55429U 23014AQ  23184.01382622  .00000646  00000-0  61911-4 0  9995,2 55429  70.0001  37.1995 0003133 269.0964  90.9836 14.98333675 23723,6950.182,96.107,574.224,569.869,0.0
55429.0,STARLINK-5645,PAYLOAD,2023-07-03 17:57:23,14.98329506,0.0003125,70.0002,35.3479,268.9753,91.1048,-2.6666e-05,-4.11e-06,0.0,0 STARLINK-5645,1 55429U 23014AQ  23184.74819020 -.00000411  00000-0 -26666-4 0  9992,2 55429  70.0002  35.3479 0003125 268.9753  91.1048 14.98329506 23834,6950.194,96.107,574.231,569.887,0.0
55429.0,STARLINK-5645,PAYLOAD,2023-07-05 00:23:56,14.9833232,0.0003027,70.0003,32.1497,269.6995,90.3817,-1.8771e-05,-3.17e-06,0.0,0 STARLINK-5645,1 55429U 23014AQ  23186.01662672 -.00000317  00000-0 -18771-4 0  9996,2 55429  70.0003  32.1497 0003027 269.6995  90.3817 14.98332320 24022,6950.186,96.107,574.155,569.947,0.0
55429.0,STARLINK-5645,PAYLOAD,2023-07-06 06:50:29,14.98329339,0.0003119,70.0002,28.9514,267.9712,92.1089,-4.7235e-06,-1.49e-06,0.0,0 STARLINK-5645,1 55429U 23014AQ  23187.28506755 -.00000149  00000-0 -47235-5 0  9996,2 55429  70.0002  28.9514 0003119 267.9712  92.1089 14.98329339 24212,6950.195,96.107,574.228,569.892,0.0
55429.0,STARLINK-5645,PAYLOAD,2023-07-07 18:05:27,14.98329207,0.0003165,70.0002,25.2484,268.1796,91.9001,1.0982e-05,3.8e-07,0.0,0 STARLINK-5645,1 55429U 23014AQ  23188.75378702  .00000038  00000-0  10982-4 0  9991,2 55429  70.0002  25.2484 0003165 268.1796  91.9001 14.98329207 24433,6950.195,96.107,574.26,569.861,0.0
55429.0,STARLINK-5645,PAYLOAD,2023-07-08 19:43:36,14.98322512,0.0003092,70.0003,22.5548,267.8538,92.2267,-6.1084e-05,-8.22e-06,0.0,0 STARLINK-5645,1 55429U 23014AQ  23189.82195503 -.00000822  00000-0 -61084-4 0  9998,2 55429  70.0003  22.5548 0003092 267.8538  92.2267 14.98322512 24591,6950.216,96.107,574.23,569.932,0.0
55429.0,STARLINK-5645,PAYLOAD,2023-07-09 18:09:29,14.98329135,0.000315,70.0004,20.1982,269.3798,90.7,-8.7633e-06,-1.98e-06,0.0,0 STARLINK-5645,1 55429U 23014AQ  23190.75659157 -.00000198  00000-0 -87633-5 0  9997,2 55429  70.0004  20.1982 0003150 269.3798  90.7000 14.98329135 24730,6950.196,96.107,574.25,569.871,0.0
55429.0,STARLINK-5645,PAYLOAD,2023-07-10 11:46:57,14.9833262,0.0003216,70.0002,18.3466,268.6804,91.3987,0.00013071,1.467e-05,0.0,0 STARLINK-5645,1 55429U 23014AQ  23191.49094495  .00001467  00000-0  13071-3 0  9998,2 55429  70.0002  18.3466 0003216 268.6804  91.3987 14.98332620 24843,6950.185,96.107,574.285,569.815,0.0
55429.0,STARLINK-5645,PAYLOAD,2023-07-11 18:13:32,14.98318614,0.000234,70.0018,15.1501,267.5187,92.5704,-9.2828e-05,-1.2e-05,0.0,0 STARLINK-5645,1 55429U 23014AQ  23192.75940383 -.00001200  00000-0 -92828-4 0  9999,2 55429  70.0018  15.1501 0002340 267.5187  92.5704 14.98318614 25033,6950.228,96.108,573.719,570.467,0.0
55429.0,STARLINK-5645,PAYLOAD,2023-07-12 18:15:33,14.98331461,0.0003277,70.0,12.6233,267.8874,92.191,-8.4627e-05,-1.103e-05,0.0,0 STARLINK-5645,1 55429U 23014AQ  23193.76079987 -.00001103  00000-0 -84627-4 0  9994,2 55429  70.0000  12.6233 0003277 267.8874  92.1910 14.98331461 25180,6950.188,96.107,574.331,569.776,0.0
55429.0,STARLINK-5645,PAYLOAD,2023-07-13 18:17:33,14.9832865,0.000343,70.0004,10.0982,270.9178,89.1588,0.00026394,3.058e-05,0.0,0 STARLINK-5645,1 55429U 23014AQ  23194.76219323  .00003058  00000-0  26394-3 0  9990,2 55429  70.0004  10.0982 0003430 270.9178  89.1588 14.98328650 25330,6950.197,96.107,574.446,569.678,0.0
55429.0,STARLINK-5645,PAYLOAD,2023-07-14 18:19:33,14.98343505,0.00034,70.0006,7.5736,271.0354,89.0416,0.00011585,1.29e-05,0.0,0 STARLINK-5645,1 55429U 23014AQ  23195.76358442  .00001290  00000-0  11585-3 0  9999,2 55429  70.0006   7.5736 0003400 271.0354  89.0416 14.98343505 25486,6950.151,96.106,574.379,569.653,0.0
55429.0,STARLINK-5645,PAYLOAD,2023-07-15 18:21:35,14.98317112,0.0002979,70.0011,5.0491,268.9465,91.1352,0.00022411,2.581e-05,0.0,0 STARLINK-5645,1 55429U 23014AQ  23196.76499145  .00002581  00000-0  22411-3 0  9990,2 55429  70.0011   5.0491 0002979 268.9465  91.1352 14.98317112 25636,6950.233,96.108,574.168,570.027,0.0
55429.0,STARLINK-5645,PAYLOAD,2023-07-16 03:58:23,14.98333463,0.0003283,70.0009,4.0388,269.005,91.0733,-0.00011597,-1.477e-05,0.0,0 STARLINK-5645,1 55429U 23014AQ  23197.16554780 -.00001477  00000-0 -11597-3 0  9990,2 55429  70.0009   4.0388 0003283 269.0050  91.0733 14.98333463 25693,6950.182,96.107,574.329,569.765,0.0
55429.0,STARLINK-5645,PAYLOAD,2023-07-17 16:49:28,14.98330979,0.000322,70.0012,0.1674,265.7276,94.3515,5.0351e-05,5.08e-06,0.0,0 STARLINK-5645,1 55429U 23014AQ  23198.70102046  .00000508  00000-0  50351-4 0  9999,2 55429  70.0012   0.1674 0003220 265.7276  94.3515 14.98330979 25925,6950.19,96.107,574.293,569.817,0.0
55429.0,STARLINK-5645,PAYLOAD,2023-07-18 20:03:45,14.98328153,0.0003211,70.0013,357.3063,268.7832,91.2959,4.3607e-06,-4.1e-07,0.0,0 STARLINK-5645,1 55429U 23014AQ  23199.83594279 -.00000041  00000-0  43607-5 0  9997,2 55429  70.0013 357.3063 0003211 268.7832  91.2959 14.98328153 26094,6950.199,96.107,574.295,569.832,0.0
55429.0,STARLINK-5645,PAYLOAD,2023-07-19 18:29:38,14.98324124,0.0003183,70.0016,354.9499,268.0821,91.9973,-9.7746e-05,-1.259e-05,0.0,0 STARLINK-5645,1 55429U 23014AQ  23200.77058989 -.00001259  00000-0 -97746-4 0  9991,2 55429  70.0016 354.9499 0003183 268.0821  91.9973 14.98324124 26235,6950.211,96.107,574.288,569.864,0.0
55429.0,STARLINK-5645,PAYLOAD,2023-07-20 13:43:14,14.98333997,0.0003345,70.0014,352.9299,268.2881,91.7895,4.7997e-05,4.8e-06,0.0,0 STARLINK-5645,1 55429U 23014AQ  23201.57169966  .00000480  00000-0  47997-4 0  9994,2 55429  70.0014 352.9299 0003345 268.2881  91.7895 14.98333997 26359,6950.181,96.107,574.37,569.721,0.0
55429.0,STARLINK-5645,PAYLOAD,2023-07-21 08:56:51,14.9835963,0.0002495,70.0026,350.9117,253.4019,106.6866,-0.00036591,-4.459e-05,0.0,0 STARLINK-5645,1 55429U 23014AQ  23202.37281826 -.00004459  00000-0 -36591-3 0  9992,2 55429  70.0026 350.9117 0002495 253.4019 106.6866 14.98359630 26472,6950.101,96.105,573.7,570.232,0.0
55429.0,STARLINK-5645,PAYLOAD,2023-07-21 12:09:07,14.98354353,0.0002742,70.0017,350.5722,259.8313,100.2536,-0.00043544,-5.288e-05,0.0,0 STARLINK-5645,1 55429U 23014AQ  23202.50634162 -.00005288  00000-0 -43544-3 0  9999,2 55429  70.0017 350.5722 0002742 259.8313 100.2536 14.98354353 26495,6950.118,96.105,573.888,570.077,0.0
